1 39574U 14009C   19148.82361566 +.00002031 +00000-0 +00000-0 0  9990
2 39574 065.0081 023.2028 0011778 286.8481 073.1373 15.55547588298059
